OBJECT_NAME,OBJECT_ID,EPOCH,MEAN_MOTION,ECCENTRICITY,INCLINATION,RA_OF_ASC_NODE,ARG_OF_PERICENTER,MEAN_ANOMALY,EPHEMERIS_TYPE,CLASSIFICATION_TYPE,NORAD_CAT_ID,ELEMENT_SET_NO,REV_AT_EPOCH,BSTAR,MEAN_MOTION_DOT,MEAN_MOTION_DDOT
ONEWEB-0225,2021-045AJ,2026-06-04T15:52:11.428896,13.15547490,.0001649,87.9003,261.6933,105.3725,254.7587,0,U,48799,999,24277,.26257E-3,.112E-5,0
ONEWEB-0215,2021-045AK,2026-06-04T06:01:11.686944,13.15550450,.0001324,87.9018,261.7579,104.3207,255.8070,0,U,48800,999,24259,-.24002E-3,-.78E-6,0
ONEWEB-0216,2021-045AL,2026-06-04T06:14:54.852576,13.15547774,.0002008,87.9000,261.7708,94.9765,265.1594,0,U,48801,999,24260,.34543E-4,.26E-6,0
ONEWEB-0239,2021-045AM,2026-06-04T06:21:44.997696,13.15548172,.0001203,87.8996,261.7766,115.9998,244.1256,0,U,48802,999,24264,.9034E-4,.47E-6,0
ONEWEB-0249,2021-060A,2026-06-04T15:58:10.157376,13.16594474,.0001969,87.9105,231.2637,101.9812,258.1539,0,U,48967,999,23796,.13495E-4,.18E-6,0
ONEWEB-0250,2021-060B,2026-06-04T15:05:41.057088,13.25832705,.0002426,87.9106,229.0689,125.4444,234.6919,0,U,48968,999,23855,.13015E-3,.7E-6,0
ONEWEB-0252,2021-060D,2026-06-04T05:45:59.791104,13.16593669,.0002068,87.9106,231.3410,96.9032,263.2334,0,U,48970,999,23795,.2018E-4,.21E-6,0
ONEWEB-0253,2021-060E,2026-06-04T05:30:02.121408,13.16593675,.0001989,87.9104,231.3483,101.7860,258.3494,0,U,48971,999,23788,.15943E-3,.74E-6,0
ONEWEB-0254,2021-060F,2026-06-04T05:43:43.629024,13.16594281,.0001778,87.9107,231.3439,105.8008,254.3319,0,U,48972,999,23788,.42018E-4,.29E-6,0
ONEWEB-0255,2021-060G,2026-06-04T15:45:37.603008,13.16593911,.000183,87.9096,231.2691,101.3157,258.8179,0,U,48973,999,23801,.16916E-3,.78E-6,0
ONEWEB-0256,2021-060H,2026-06-04T05:26:36.206016,13.16593132,.0002153,87.9102,231.3579,98.5671,261.5704,0,U,48974,999,23792,.69448E-4,.39E-6,0
ONEWEB-0257,2021-060J,2026-06-04T15:20:32.272224,13.16593374,.0001901,87.9102,231.2629,96.4316,263.7031,0,U,48975,999,23793,.82867E-4,.45E-6,0
ONEWEB-0258,2021-060K,2026-06-04T15:22:49.236096,13.16592981,.0002023,87.9105,231.2742,101.0303,259.1055,0,U,48976,999,23794,.50071E-4,.32E-6,0
ONEWEB-0259,2021-060L,2026-06-04T15:13:42.496896,13.16593720,.0001929,87.9102,231.2747,102.9220,257.2127,0,U,48977,999,23797,-.33802E-4,0,0
ONEWEB-0260,2021-060M,2026-06-04T05:53:58.348608,13.16593613,.0002146,87.9089,231.3526,91.1713,268.9664,0,U,48978,999,23790,-.68491E-4,-.13E-6,0
ONEWEB-0261,2021-060N,2026-06-04T16:07:16.193280,13.16595572,.0001697,87.9101,231.2687,94.6857,265.4468,0,U,48979,999,23801,-.38727E-5,.11E-6,0
ONEWEB-0262,2021-060P,2026-06-04T15:38:47.055264,13.16593856,.0001875,87.9101,231.2593,105.9215,254.2122,0,U,48980,999,23797,.14509E-3,.68E-6,0
ONEWEB-0263,2021-060Q,2026-06-04T05:27:45.967104,13.16594530,.0001711,87.9106,231.3544,100.4310,259.7014,0,U,48981,999,23788,.11807E-3,.58E-6,0
ONEWEB-0264,2021-060R,2026-06-04T15:28:31.920960,13.16593446,.0001923,87.9099,231.2753,91.3768,268.7583,0,U,48982,999,23794,.11402E-3,.56E-6,0
ONEWEB-0266,2021-060T,2026-06-04T15:59:17.879424,13.16593393,.0002059,87.9106,231.2612,99.6593,260.4770,0,U,48984,999,23793,.74979E-4,.42E-6,0
ONEWEB-0267,2021-060U,2026-06-04T05:18:38.890080,13.16594599,.0001854,87.9107,231.3454,95.8125,264.3217,0,U,48985,999,23788,.2561E-3,.111E-5,0
ONEWEB-0268,2021-060V,2026-06-04T15:29:39.660288,13.16594984,.0002089,87.9105,231.2718,95.6103,264.5266,0,U,48986,999,23820,.19109E-3,.86E-6,0
ONEWEB-0269,2021-060W,2026-06-04T05:55:07.559328,13.16591031,.0002217,87.9096,231.3536,101.0133,259.1248,0,U,48987,999,23792,.94802E-3,.375E-5,0
ONEWEB-0270,2021-060X,2026-06-04T15:27:23.156928,13.16593621,.0001681,87.9103,231.2737,102.5503,257.5816,0,U,48988,999,23801,.70282E-4,.4E-6,0
ONEWEB-0271,2021-060Y,2026-06-04T15:09:08.588160,13.16594479,.0001822,87.9107,231.2667,97.9019,262.2319,0,U,48989,999,23801,.19932E-3,.89E-6,0
ONEWEB-0272,2021-060Z,2026-06-04T15:41:02.641056,13.16595505,.0001955,87.9103,231.2741,89.0057,271.1298,0,U,48990,999,23796,.15356E-3,.72E-6,0
ONEWEB-0273,2021-060AA,2026-06-04T05:16:22.168128,13.16594500,.0001902,87.9106,231.3582,101.5078,258.6266,0,U,48991,999,23788,.18782E-3,.85E-6,0
ONEWEB-0274,2021-060AB,2026-06-04T05:52:49.753056,13.16593413,.0002028,87.9080,231.3546,90.4123,269.7240,0,U,48992,999,23792,-.95882E-4,-.24E-6,0
ONEWEB-0275,2021-060AC,2026-06-04T05:36:53.301600,13.16594296,.0001995,87.9107,231.3474,98.8843,261.2514,0,U,48993,999,23785,.16538E-3,.76E-6,0
ONEWEB-0276,2021-060AD,2026-06-04T15:31:56.279424,13.16593670,.0002042,87.9102,231.2652,93.8975,266.2390,0,U,48994,999,23792,.99593E-4,.51E-6,0
ONEWEB-0277,2021-060AE,2026-06-04T15:50:10.988160,13.16592971,.0001821,87.9104,231.2716,98.1320,262.0018,0,U,48995,999,23791,.10018E-3,.51E-6,0
